     2.10           G: GLONASS NAV DATA                     RINEX VERSION / TYPE
teqc  2015Jun23                         20210510 02:25:48UTCPGM / RUN BY / DATE
Linux 2.4.21-27.ELsmp|Opteron|gcc -static|Linux x86_64|=+   COMMENT
  2021     4    16    9.778887033463D-09                    CORR TO SYSTEM TIME
                                                            END OF HEADER
14 21  4 17 17 15  0.0 6.323959678411D-05 0.000000000000D+00 6.120000000000D+04
   -2.307536523438D+04 6.790151596069D-01-9.313225746155D-10 0.000000000000D+00
    9.629357910156D+03-2.059230804443D-01 9.313225746155D-10-7.000000000000D+00
    5.090387207031D+03 3.471210479736D+00-1.862645149231D-09 0.000000000000D+00
 5 21  4 17 17 15  0.0 7.014255970716D-05 9.094947017729D-13 6.120000000000D+04
    1.124660791016D+04-1.810518264771D+00 9.313225746155D-10 0.000000000000D+00
    1.613569970703D+04-1.298874855042D+00-9.313225746155D-10 1.000000000000D+00
    1.627065625000D+04 2.540036201477D+00-9.313225746155D-10 0.000000000000D+00
15 21  4 17 17 15  0.0 1.043127849698D-04-0.000000000000D+00 6.120000000000D+04
   -1.644425585938D+04-1.397405624390D+00-2.793967723846D-09 0.000000000000D+00
    1.530713183594D+04 8.958358764648D-01 1.862645149231D-09 0.000000000000D+00
   -1.206418066406D+04 3.037447929382D+00-9.313225746155D-10 0.000000000000D+00
17 21  4 17 17 15  0.0 4.168404266238D-04 1.818989403546D-12 6.120000000000D+04
   -1.042828320312D+04 1.811466217041D-01-2.793967723846D-09 0.000000000000D+00
    6.329040527344D+03-3.067030906677D+00 1.862645149231D-09 4.000000000000D+00
   -2.239019335938D+04-9.537916183472D-01 0.000000000000D+00 0.000000000000D+00
18 21  4 17 17 15  0.0 7.350090891123D-05 9.094947017729D-13 6.120000000000D+04
   -6.467824218750D+03 2.852058410645D-01-2.793967723846D-09 0.000000000000D+00
    2.145439257812D+04-1.666411399841D+00 9.313225746155D-10-3.000000000000D+00
   -1.223204833984D+04-3.064785003662D+00-0.000000000000D+00 0.000000000000D+00
19 21  4 17 17 15  0.0-1.401724293828D-04-9.094947017729D-13 6.120000000000D+04
   -1.535581054688D+02 2.184019088745D-01-9.313225746155D-10 0.000000000000D+00
    2.525062207031D+04 5.142498016357D-01 0.000000000000D+00 3.000000000000D+00
    3.627062988281D+03-3.568997383118D+00-9.313225746155D-10 0.000000000000D+00
16 21  4 17 17 15  0.0-1.390650868416D-05-0.000000000000D+00 6.159000000000D+04
    1.415649414062D+03-2.674116134644D+00-2.793967723846D-09 0.000000000000D+00
    1.180939453125D+04 1.537726402283D+00 9.313225746155D-10-1.000000000000D+00
   -2.257689355469D+04 6.493625640869D-01 9.313225746155D-10 0.000000000000D+00
20 21  4 17 17 15  0.0-4.747882485390D-05-0.000000000000D+00 6.258000000000D+04
    7.961091796875D+03-6.370353698730D-02 9.313225746155D-10 0.000000000000D+00
    1.358520654297D+04 2.755413055420D+00-9.313225746155D-10 2.000000000000D+00
    2.009108300781D+04-1.833837509155D+00-9.313225746155D-10 0.000000000000D+00
14 21  4 17 17 45  0.0 6.324052810669D-05 0.000000000000D+00 6.300000000000D+04
   -2.126182568359D+04 1.300516128540D+00-0.000000000000D+00 0.000000000000D+00
    8.760029785156D+03-7.823829650879D-01 9.313225746155D-10-7.000000000000D+00
    1.106130322266D+04 3.120112419128D+00-2.793967723846D-09 0.000000000000D+00
 5 21  4 17 17 45  0.0 7.014442235231D-05 9.094947017729D-13 6.300000000000D+04
    7.377007812500D+03-2.464615821838D+00 9.313225746155D-10 0.000000000000D+00
    1.381605419922D+04-1.236787796021D+00-9.313225746155D-10 1.000000000000D+00
    2.015613183594D+04 1.749198913574D+00-1.862645149231D-09 0.000000000000D+00
15 21  4 17 17 45  0.0 1.043118536472D-04-0.000000000000D+00 6.300000000000D+04
   -1.824434472656D+04-6.048154830933D-01-1.862645149231D-09 0.000000000000D+00
    1.670766308594D+04 6.176805496216D-01 1.862645149231D-09 0.000000000000D+00
   -6.200672851562D+03 3.435197830200D+00-1.862645149231D-09 0.000000000000D+00
16 21  4 17 17 45  0.0-1.390744000673D-05-0.000000000000D+00 6.300000000000D+04
   -3.010496093750D+03-2.210198402405D+00-2.793967723846D-09 0.000000000000D+00
    1.479003466797D+04 1.736748695374D+00 1.862645149231D-09-1.000000000000D+00
   -2.055085107422D+04 1.587564468384D+00 0.000000000000D+00 0.000000000000D+00
18 21  4 17 17 45  0.0 7.350370287895D-05 9.094947017729D-13 6.300000000000D+04
   -6.215860351562D+03-3.729915618896D-02-2.793967723846D-09 0.000000000000D+00
    1.779465234375D+04-2.365414619446D+00 1.862645149231D-09-3.000000000000D+00
   -1.720565917969D+04-2.425544738770D+00-0.000000000000D+00 0.000000000000D+00
19 21  4 17 17 45  0.0-1.401752233505D-04-9.094947017729D-13 6.300000000000D+04
    2.890458984375D+02 2.304897308350D-01-1.862645149231D-09 0.000000000000D+00
    2.534875585938D+04-4.062881469727D-01 9.313225746155D-10 3.000000000000D+00
   -2.854347656250D+03-3.585811614990D+00-9.313225746155D-10 0.000000000000D+00
20 21  4 17 17 45  0.0-4.747975617647D-05-0.000000000000D+00 6.303000000000D+04
    8.216293457031D+03 3.207960128784D-01 0.000000000000D+00 0.000000000000D+00
    1.806878613281D+04 2.184397697449D+00-9.313225746155D-10 2.000000000000D+00
    1.605788671875D+04-2.618401527405D+00-9.313225746155D-10 0.000000000000D+00
14 21  4 17 18 15  0.0 6.324145942926D-05 0.000000000000D+00 6.480000000000D+04
   -1.853969531250D+04 1.679757118225D+00 0.000000000000D+00 0.000000000000D+00
    6.761583984375D+03-1.443533897400D+00 0.000000000000D+00-7.000000000000D+00
    1.617786230469D+04 2.528091430664D+00-2.793967723846D-09 0.000000000000D+00
19 21  4 17 18 15  0.0-1.401780173182D-04-9.094947017729D-13 6.480000000000D+04
    5.253637695312D+02-7.255554199219D-03-1.862645149231D-09 0.000000000000D+00
    2.382084912109D+04-1.272353172302D+00 1.862645149231D-09 3.000000000000D+00
   -9.115098144531D+03-3.325416564941D+00-9.313225746155D-10 0.000000000000D+00
15 21  4 17 18 15  0.0 1.043109223247D-04-0.000000000000D+00 6.480000000000D+04
   -1.866293896484D+04 1.193780899048D-01-9.313225746155D-10 0.000000000000D+00
    1.738745068359D+04 1.020832061768D-01 1.862645149231D-09 0.000000000000D+00
    1.425913085938D+02 3.567077636719D+00-1.862645149231D-09 0.000000000000D+00
 5 21  4 17 18 15  0.0 7.014628499746D-05 9.094947017729D-13 6.480000000000D+04
    2.491349121094D+03-2.924053192139D+00 0.000000000000D+00 0.000000000000D+00
    1.181708300781D+04-9.529304504395D-01-9.313225746155D-10 1.000000000000D+00
    2.248659082031D+04 8.234071731567D-01-1.862645149231D-09 0.000000000000D+00
16 21  4 17 18 15  0.0-1.390837132931D-05-9.094947017729D-13 6.480000000000D+04
   -6.448205566406D+03-1.592244148254D+00-1.862645149231D-09 0.000000000000D+00
    1.791098632812D+04 1.685975074768D+00 1.862645149231D-09-1.000000000000D+00
   -1.693429101562D+04 2.405009269714D+00-0.000000000000D+00 0.000000000000D+00
18 21  4 17 18 15  0.0 7.350649684668D-05 9.094947017729D-13 6.480000000000D+04
   -6.692321777344D+03-5.092086791992D-01-1.862645149231D-09 0.000000000000D+00
    1.308804052734D+04-2.817131996155D+00 1.862645149231D-09-3.000000000000D+00
   -2.085095703125D+04-1.598377227783D+00 0.000000000000D+00 0.000000000000D+00
20 21  4 17 18 15  0.0-4.748068749905D-05-0.000000000000D+00 6.480000000000D+04
    8.996809570312D+03 5.079345703125D-01-9.313225746155D-10 0.000000000000D+00
    2.132412255859D+04 1.406235694885D+00-0.000000000000D+00 2.000000000000D+00
    1.078644531250D+04-3.200803756714D+00-9.313225746155D-10 0.000000000000D+00
 5 21  4 17 18 45  0.0 7.014721632004D-05 9.094947017729D-13 6.660000000000D+04
   -2.986400390625D+03-3.112884521484D+00 0.000000000000D+00 0.000000000000D+00
    1.047183935547D+04-5.259780883789D-01-0.000000000000D+00 1.000000000000D+00
    2.308206640625D+04-1.661043167114D-01-2.793967723846D-09 0.000000000000D+00
19 21  4 17 18 45  0.0-1.401808112860D-04-9.094947017729D-13 6.660000000000D+04
    1.384404296875D+02-4.511594772339D-01-1.862645149231D-09 0.000000000000D+00
    2.086914160156D+04-1.971237182617D+00 1.862645149231D-09 3.000000000000D+00
   -1.467122265625D+04-2.807983398438D+00-0.000000000000D+00 0.000000000000D+00
15 21  4 17 18 45  0.0 1.043109223247D-04-0.000000000000D+00 6.660000000000D+04
   -1.791532519531D+04 6.767244338989D-01-0.000000000000D+00 0.000000000000D+00
    1.696947900391D+04-5.885496139526D-01 1.862645149231D-09 0.000000000000D+00
    6.474859863281D+03 3.423101425171D+00-1.862645149231D-09 0.000000000000D+00
16 21  4 17 18 45  0.0-1.391023397446D-05-9.094947017729D-13 6.660000000000D+04
   -8.713701171875D+03-9.262962341309D-01-1.862645149231D-09 0.000000000000D+00
    2.069427587891D+04 1.361304283142D+00 2.793967723846D-09-1.000000000000D+00
   -1.200406640625D+04 3.037508964539D+00-9.313225746155D-10 0.000000000000D+00
18 21  4 17 18 45  0.0 7.350835949183D-05 9.094947017729D-13 6.660000000000D+04
   -8.078266113281D+03-1.029496192932D+00-1.862645149231D-09 0.000000000000D+00
    7.834563476562D+03-2.967779159546D+00 1.862645149231D-09-3.000000000000D+00
   -2.288496972656D+04-6.467952728271D-01 0.000000000000D+00 0.000000000000D+00
20 21  4 17 18 45  0.0-4.748161882162D-05-0.000000000000D+00 6.660000000000D+04
    9.894279785156D+03 4.456338882446D-01-9.313225746155D-10 0.000000000000D+00
    2.307019824219D+04 5.268154144287D-01 0.000000000000D+00 2.000000000000D+00
    4.683470214844D+03-3.536375999451D+00-9.313225746155D-10 0.000000000000D+00
 9 21  4 17 18 45  0.0-1.157168298960D-05 1.818989403546D-12 6.708000000000D+04
    4.087658691406D+03-1.858969688416D+00-1.862645149231D-09 0.000000000000D+00
    1.222138818359D+04 2.372583389282D+00 1.862645149231D-09-2.000000000000D+00
   -2.201161181641D+04 9.649829864502D-01 0.000000000000D+00 0.000000000000D+00
19 21  4 17 19 15  0.0-1.401836052537D-04-9.094947017729D-13 6.840000000000D+04
   -1.173583984375D+03-1.018840789795D+00-1.862645149231D-09 0.000000000000D+00
    1.687706396484D+04-2.417046546936D+00 2.793967723846D-09 3.000000000000D+00
   -1.909329736328D+04-2.073546409607D+00-0.000000000000D+00 0.000000000000D+00
